H1 CPF  1  DLR 2022 03 25 10  5842 technosat            
H2  1704205 6203    42829 2022 03 25 00 00 00 2022 04 01 00 00 00    60 1 1  0 0 0
H9
10 0 59663  43200.000000  0       3525249.357      -5190116.776      -3037072.523
10 0 59663  43260.000000  0       3550245.810      -5393160.779      -2626712.623
10 0 59663  43320.000000  0       3558590.171      -5573604.104      -2205193.726
10 0 59663  43380.000000  0       3550445.340      -5730535.007      -1774304.378
10 0 59663  43440.000000  0       3526051.977      -5863143.387      -1335874.165
10 0 59663  43500.000000  0       3485726.677      -5970725.133       -891765.708
10 0 59663  43560.000000  0       3429859.734      -6052685.923       -443866.471
10 0 59663  43620.000000  0       3358912.487      -6108544.468          5919.535
10 0 59663  43680.000000  0       3273414.339      -6137935.219        455680.052
10 0 59663  43740.000000  0       3173959.522      -6140610.598        903502.943
10 0 59663  43800.000000  0       3061203.513      -6116442.669       1347484.691
10 0 59663  43860.000000  0       2935859.094      -6065424.047       1785738.871
10 0 59663  43920.000000  0       2798692.138      -5987668.209       2216404.359
10 0 59663  43980.000000  0       2650517.179      -5883409.346       2637653.456
10 0 59663  44040.000000  0       2492192.716      -5753001.473       3047699.797
10 0 59663  44100.000000  0       2324616.424      -5596917.092       3444805.973
10 0 59663  44160.000000  0       2148720.217      -5415745.314       3827291.005
10 0 59663  44220.000000  0       1965465.129      -5210189.378       4193537.519
10 0 59663  44280.000000  0       1775836.134      -4981063.596       4541998.550
10 0 59663  44340.000000  0       1580836.971      -4729289.826       4871203.966
10 0 59663  44400.000000  0       1381484.938      -4455893.546       5179766.616
10 0 59663  44460.000000  0       1178805.580      -4161999.343       5466388.123
10 0 59663  44520.000000  0        973827.428      -3848825.909       5729864.114
10 0 59663  44580.000000  0        767576.837      -3517680.697       5969088.997
10 0 59663  44640.000000  0        561072.912      -3169954.232       6183060.273
10 0 59663  44700.000000  0        355322.559      -2807114.125       6370882.453
10 0 59663  44760.000000  0        151315.655      -2430698.737       6531770.515
10 0 59663  44820.000000  0        -49979.592      -2042310.585       6665052.881
10 0 59663  44880.000000  0       -247621.144      -1643609.550       6770173.994
10 0 59663  44940.000000  0       -440697.474      -1236305.767       6846696.497
10 0 59663  45000.000000  0       -628331.669       -822152.263       6894302.864
10 0 59663  45060.000000  0       -809685.328       -402937.469       6912796.571
10 0 59663  45120.000000  0       -983962.260         19522.442       6902102.800
10 0 59663  45180.000000  0      -1150411.921        443391.332       6862268.673
10 0 59663  45240.000000  0      -1308332.578        866820.990       6793463.011
10 0 59663  45300.000000  0      -1457074.221       1287959.053       6695975.638
10 0 59663  45360.000000  0      -1596041.212       1704957.013       6570216.267
10 0 59663  45420.000000  0      -1724694.668       2115978.231       6416712.879
10 0 59663  45480.000000  0      -1842554.517       2519205.946       6236109.677
10 0 59663  45540.000000  0      -1949201.303       2912851.284       6029164.556
10 0 59663  45600.000000  0      -2044277.633       3295161.138       5796746.108
10 0 59663  45660.000000  0      -2127489.333       3664425.964       5539830.285
10 0 59663  45720.000000  0      -2198606.356       4018987.541       5259496.588
10 0 59663  45780.000000  0      -2257463.336       4357246.529       4956923.739
10 0 59663  45840.000000  0      -2303959.798       4677669.832       4633384.949
10 0 59663  45900.000000  0      -2338060.057       4978797.724       4290242.781
10 0 59663  45960.000000  0      -2359792.808       5259250.729       3928943.588
10 0 59663  46020.000000  0      -2369250.382       5517736.173       3551011.518
10 0 59663  46080.000000  0      -2366587.654       5753054.341       3158042.162
10 0 59663  46140.000000  0      -2352020.661       5964104.272       2751695.907
10 0 59663  46200.000000  0      -2325824.907       6149889.177       2333690.954
10 0 59663  46260.000000  0      -2288333.345       6309521.400       1905796.012
10 0 59663  46320.000000  0      -2239934.050       6442226.868       1469822.745
10 0 59663  46380.000000  0      -2181067.616       6547349.038       1027618.026
10 0 59663  46440.000000  0      -2112224.299       6624352.335        581055.965
10 0 59663  46500.000000  0      -2033940.882       6672824.982        132029.799
10 0 59663  46560.000000  0      -1946797.351       6692481.286       -317556.312
10 0 59663  46620.000000  0      -1851413.336       6683163.370       -765795.615
10 0 59663  46680.000000  0      -1748444.336       6644842.255      -1210787.209
10 0 59663  46740.000000  0      -1638577.681       6577618.112      -1650644.477
10 0 59663  46800.000000  0      -1522528.453       6481719.870      -2083503.219
10 0 59663  46860.000000  0      -1401035.272       6357504.293      -2507529.695
10 0 59663  46920.000000  0      -1274855.998       6205454.452      -2920928.443
10 0 59663  46980.000000  0      -1144763.377       6026177.704      -3321949.939
10 0 59663  47040.000000  0      -1011540.662       5820403.064      -3708898.086
10 0 59663  47100.000000  0       -875977.216       5588977.972      -4080137.436
10 0 59663  47160.000000  0       -738864.138       5332864.484      -4434100.069
10 0 59663  47220.000000  0       -600989.907       5053135.030      -4769292.111
10 0 59663  47280.000000  0       -463136.100       4750967.683      -5084299.948
10 0 59663  47340.000000  0       -326073.178       4427640.971      -5377796.086
10 0 59663  47400.000000  0       -190556.372       4084528.206      -5648544.615
10 0 59663  47460.000000  0        -57321.709       3723091.409      -5895406.236
10 0 59663  47520.000000  0         72917.819       3344874.857      -6117342.836
10 0 59663  47580.000000  0        199475.893       2951498.296      -6313421.600
10 0 59663  47640.000000  0        321696.294       2544649.904      -6482818.650
10 0 59663  47700.000000  0        438956.189       2126079.039      -6624822.280
10 0 59663  47760.000000  0        550669.194       1697588.725      -6738835.808
10 0 59663  47820.000000  0        656288.210       1261027.834      -6824379.911
10 0 59663  47880.000000  0        755308.003        818283.170      -6881094.443
10 0 59663  47940.000000  0        847267.570        371271.411      -6908739.897
10 0 59663  48000.000000  0        931752.246        -78069.161      -6907198.374
10 0 59663  48060.000000  0       1008395.526       -527787.001      -6876473.989
10 0 59663  48120.000000  0       1076880.640       -975925.615      -6816692.836
10 0 59663  48180.000000  0       1136941.859      -1420531.942      -6728102.532
10 0 59663  48240.000000  0       1188365.516      -1859664.708      -6611071.309
10 0 59663  48300.000000  0       1230990.790      -2291402.785      -6466086.719
10 0 59663  48360.000000  0       1264710.239      -2713853.561      -6293753.868
10 0 59663  48420.000000  0       1289469.984      -3125161.301      -6094793.195
10 0 59663  48480.000000  0       1305269.578      -3523515.436      -5870037.696
10 0 59663  48540.000000  0       1312161.630      -3907158.639      -5620429.619
10 0 59663  48600.000000  0       1310251.169      -4274394.667      -5347016.725
10 0 59663  48660.000000  0       1299694.735      -4623595.984      -5050948.154
10 0 59663  48720.000000  0       1280699.174      -4953211.192      -4733469.898
10 0 59663  48780.000000  0       1253520.134      -5261772.240      -4395919.789
10 0 59663  48840.000000  0       1218460.282      -5547901.292      -4039722.016
10 0 59663  48900.000000  0       1175867.269      -5810317.180      -3666381.209
10 0 59663  48960.000000  0       1126131.450      -6047841.463      -3277476.191
10 0 59663  49020.000000  0       1069683.371      -6259404.075      -2874653.346
10 0 59663  49080.000000  0       1006991.025      -6444048.508      -2459619.654
10 0 59663  49140.000000  0        938556.915      -6600936.490      -2034135.366
10 0 59663  49200.000000  0        864914.873      -6729352.103      -1600006.411
10 0 59663  49260.000000  0        786626.698      -6828705.332      -1159076.546
10 0 59663  49320.000000  0        704278.642      -6898534.966       -713219.294
10 0 59663  49380.000000  0        618477.781      -6938510.903       -264329.761
10 0 59663  49440.000000  0        529848.249      -6948435.828        185683.650
10 0 59663  49500.000000  0        439027.390      -6928246.268        634907.625
10 0 59663  49560.000000  0        346661.841      -6878012.976       1081432.354
10 0 59663  49620.000000  0        253403.576      -6797940.681       1523359.944
10 0 59663  49680.000000  0        159905.917      -6688367.153       1958812.799
10 0 59663  49740.000000  0         66819.568      -6549761.595       2385941.874
10 0 59663  49800.000000  0        -25211.300      -6382722.368       2802934.796
10 0 59663  49860.000000  0       -115552.945      -6187974.045       3208023.743
10 0 59663  49920.000000  0       -203585.888      -5966363.839       3599492.970
10 0 59663  49980.000000  0       -288708.581      -5718857.640       3975686.042
10 0 59663  50040.000000  0       -370340.984      -5446535.520       4335012.904
10 0 59663  50100.000000  0       -447928.004      -5150586.618       4675956.596
10 0 59663  50160.000000  0       -520942.738      -4832303.560       4997079.520
10 0 59663  50220.000000  0       -588889.525      -4493076.537       5297029.348
10 0 59663  50280.000000  0       -651306.828      -4134386.936       5574544.617
10 0 59663  50340.000000  0       -707769.910      -3757800.527       5828459.868
99
